{
  "norad_id": 58778,
  "name": "STARLINK-31120",
  "history": [
    {
      "epoch": "2026-03-28T19:35:24.497664Z",
      "apogee_km": 476.02633828605394,
      "perigee_km": 474.41100235455906,
      "latitude_deg": 5.3955838414723973e-05,
      "longitude_deg": 165.09449231848905,
      "height_km": 476.18134931831935,
      "semi_major_axis_km": 6853.355670320306,
      "eccentricity": 0.00011785,
      "inclination_deg": 53.1585,
      "raan_deg": 285.1778,
      "arg_perigee_deg": 94.5908,
      "mean_anomaly_deg": 265.5228,
      "mean_motion_rev_day": 15.30198794
    }
  ]
}