{"fetched_at":"2026-03-29T16:36:15Z","count":15609,"tles":[{"name":"STARLINK-31120","line1":"1 58778U 24011P   26087.81625576  .00002391  00000+0  92844-4 0  9991","line2":"2 58778  53.1585 285.1778 0001178  94.5908 265.5228 15.30198794123197","category":"Starlink"}]}